CCSDS_OMM_VERS = 2.0
CREATION_DATE  = 
ORIGINATOR     = 

OBJECT_NAME    = ATLAS CENTAUR 2
OBJECT_ID      = 1963-047A
CENTER_NAME    = EARTH
REF_FRAME      = TEME
TIME_SYSTEM    = UTC
MEAN_ELEMENT_THEORY = SGP/SGP4

EPOCH          = 2025-12-21T20:18:44.258112
MEAN_MOTION    = 14.11798000
ECCENTRICITY   = .0548769
INCLINATION    = 30.3530
RA_OF_ASC_NODE = 270.5905
ARG_OF_PERICENTER = 114.3958
MEAN_ANOMALY   = 251.4899

EPHEMERIS_TYPE = 0
CLASSIFICATION_TYPE = U
NORAD_CAT_ID   = 694
ELEMENT_SET_NO = 999
REV_AT_EPOCH   = 12061
BSTAR          = .21095E-3
MEAN_MOTION_DOT = .1808E-4
MEAN_MOTION_DDOT = 0

CCSDS_OMM_VERS = 2.0
CREATION_DATE  = 
ORIGINATOR     = 

OBJECT_NAME    = THOR AGENA D R/B
OBJECT_ID      = 1964-002A
CENTER_NAME    = EARTH
REF_FRAME      = TEME
TIME_SYSTEM    = UTC
MEAN_ELEMENT_THEORY = SGP/SGP4

EPOCH          = 2025-12-21T17:21:53.456832
MEAN_MOTION    = 14.33964628
ECCENTRICITY   = .0033713
INCLINATION    = 99.1218
RA_OF_ASC_NODE = 359.8281
ARG_OF_PERICENTER = 124.5357
MEAN_ANOMALY   = 235.9016

EPHEMERIS_TYPE = 0
CLASSIFICATION_TYPE = U
NORAD_CAT_ID   = 733
ELEMENT_SET_NO = 999
REV_AT_EPOCH   = 22712
BSTAR          = .807E-4
MEAN_MOTION_DOT = .178E-5
MEAN_MOTION_DDOT = 0

CCSDS_OMM_VERS = 2.0
CREATION_DATE  = 
ORIGINATOR     = 

OBJECT_NAME    = SL-3 R/B
OBJECT_ID      = 1964-053B
CENTER_NAME    = EARTH
REF_FRAME      = TEME
TIME_SYSTEM    = UTC
MEAN_ELEMENT_THEORY = SGP/SGP4

EPOCH          = 2025-12-21T17:50:05.637120
MEAN_MOTION    = 14.61282313
ECCENTRICITY   = .0074608
INCLINATION    = 65.0749
RA_OF_ASC_NODE = 199.7416
ARG_OF_PERICENTER = 317.3935
MEAN_ANOMALY   = 42.1391

EPHEMERIS_TYPE = 0
CLASSIFICATION_TYPE = U
NORAD_CAT_ID   = 877
ELEMENT_SET_NO = 999
REV_AT_EPOCH   = 25540
BSTAR          = .4869E-4
MEAN_MOTION_DOT = .125E-5
MEAN_MOTION_DDOT = 0

CCSDS_OMM_VERS = 2.0
CREATION_DATE  = 
ORIGINATOR     = 

OBJECT_NAME    = SL-8 R/B
OBJECT_ID      = 1967-045B
CENTER_NAME    = EARTH
REF_FRAME      = TEME
TIME_SYSTEM    = UTC
MEAN_ELEMENT_THEORY = SGP/SGP4

EPOCH          = 2025-12-21T17:17:22.891776
MEAN_MOTION    = 14.45545889
ECCENTRICITY   = .0063842
INCLINATION    = 74.0104
RA_OF_ASC_NODE = 133.6931
ARG_OF_PERICENTER = 160.8205
MEAN_ANOMALY   = 199.5379

EPHEMERIS_TYPE = 0
CLASSIFICATION_TYPE = U
NORAD_CAT_ID   = 2802
ELEMENT_SET_NO = 999
REV_AT_EPOCH   = 7775
BSTAR          = .10817E-3
MEAN_MOTION_DOT = .363E-5
MEAN_MOTION_DDOT = 0

CCSDS_OMM_VERS = 2.0
CREATION_DATE  = 
ORIGINATOR     = 

OBJECT_NAME    = SL-8 R/B
OBJECT_ID      = 1968-040B
CENTER_NAME    = EARTH
REF_FRAME      = TEME
TIME_SYSTEM    = UTC
MEAN_ELEMENT_THEORY = SGP/SGP4

EPOCH          = 2025-12-21T18:17:19.559616
MEAN_MOTION    = 15.02583906
ECCENTRICITY   = .0025947
INCLINATION    = 74.0315
RA_OF_ASC_NODE = 112.8450
ARG_OF_PERICENTER = 312.8615
MEAN_ANOMALY   = 47.0394

EPHEMERIS_TYPE = 0
CLASSIFICATION_TYPE = U
NORAD_CAT_ID   = 3230
ELEMENT_SET_NO = 999
REV_AT_EPOCH   = 7830
BSTAR          = .21908E-3
MEAN_MOTION_DOT = .2894E-4
MEAN_MOTION_DDOT = 0

CCSDS_OMM_VERS = 2.0
CREATION_DATE  = 
ORIGINATOR     = 

OBJECT_NAME    = OAO 2
OBJECT_ID      = 1968-110A
CENTER_NAME    = EARTH
REF_FRAME      = TEME
TIME_SYSTEM    = UTC
MEAN_ELEMENT_THEORY = SGP/SGP4

EPOCH          = 2025-12-21T16:30:12.241152
MEAN_MOTION    = 14.47249268
ECCENTRICITY   = .0006064
INCLINATION    = 34.9949
RA_OF_ASC_NODE = 340.7082
ARG_OF_PERICENTER = 289.3522
MEAN_ANOMALY   = 70.6513

EPHEMERIS_TYPE = 0
CLASSIFICATION_TYPE = U
NORAD_CAT_ID   = 3597
ELEMENT_SET_NO = 999
REV_AT_EPOCH   = 779
BSTAR          = .59841E-4
MEAN_MOTION_DOT = .203E-5
MEAN_MOTION_DDOT = 0

CCSDS_OMM_VERS = 2.0
CREATION_DATE  = 
ORIGINATOR     = 

OBJECT_NAME    = ISIS 1
OBJECT_ID      = 1969-009A
CENTER_NAME    = EARTH
REF_FRAME      = TEME
TIME_SYSTEM    = UTC
MEAN_ELEMENT_THEORY = SGP/SGP4

EPOCH          = 2025-12-21T17:37:08.920992
MEAN_MOTION    = 11.30358175
ECCENTRICITY   = .1706971
INCLINATION    = 88.4489
RA_OF_ASC_NODE = 163.8123
ARG_OF_PERICENTER = 246.5188
MEAN_ANOMALY   = 94.7759

EPHEMERIS_TYPE = 0
CLASSIFICATION_TYPE = U
NORAD_CAT_ID   = 3669
ELEMENT_SET_NO = 999
REV_AT_EPOCH   = 33972
BSTAR          = .13336E-3
MEAN_MOTION_DOT = .184E-5
MEAN_MOTION_DDOT = 0

CCSDS_OMM_VERS = 2.0
CREATION_DATE  = 
ORIGINATOR     = 

OBJECT_NAME    = SERT 2
OBJECT_ID      = 1970-009A
CENTER_NAME    = EARTH
REF_FRAME      = TEME
TIME_SYSTEM    = UTC
MEAN_ELEMENT_THEORY = SGP/SGP4

EPOCH          = 2025-12-21T20:32:35.354400
MEAN_MOTION    = 13.58718987
ECCENTRICITY   = .0005145
INCLINATION    = 99.2665
RA_OF_ASC_NODE = 298.2482
ARG_OF_PERICENTER = 13.6924
MEAN_ANOMALY   = 6.4486

EPHEMERIS_TYPE = 0
CLASSIFICATION_TYPE = U
NORAD_CAT_ID   = 4327
ELEMENT_SET_NO = 999
REV_AT_EPOCH   = 76932
BSTAR          = .91235E-4
MEAN_MOTION_DOT = .25E-6
MEAN_MOTION_DDOT = 0

CCSDS_OMM_VERS = 2.0
CREATION_DATE  = 
ORIGINATOR     = 

OBJECT_NAME    = SL-3 R/B
OBJECT_ID      = 1971-028B
CENTER_NAME    = EARTH
REF_FRAME      = TEME
TIME_SYSTEM    = UTC
MEAN_ELEMENT_THEORY = SGP/SGP4

EPOCH          = 2025-12-21T19:33:36.152064
MEAN_MOTION    = 15.54943235
ECCENTRICITY   = .0019177
INCLINATION    = 81.2376
RA_OF_ASC_NODE = 147.7520
ARG_OF_PERICENTER = 207.9903
MEAN_ANOMALY   = 152.0317

EPHEMERIS_TYPE = 0
CLASSIFICATION_TYPE = U
NORAD_CAT_ID   = 5118
ELEMENT_SET_NO = 999
REV_AT_EPOCH   = 97654
BSTAR          = .45959E-3
MEAN_MOTION_DOT = .31095E-3
MEAN_MOTION_DDOT = 0

CCSDS_OMM_VERS = 2.0
CREATION_DATE  = 
ORIGINATOR     = 

OBJECT_NAME    = ASTEX 1
OBJECT_ID      = 1971-089A
CENTER_NAME    = EARTH
REF_FRAME      = TEME
TIME_SYSTEM    = UTC
MEAN_ELEMENT_THEORY = SGP/SGP4

EPOCH          = 2025-12-21T19:26:44.202912
MEAN_MOTION    = 14.50652582
ECCENTRICITY   = .001522
INCLINATION    = 92.7147
RA_OF_ASC_NODE = 126.5541
ARG_OF_PERICENTER = 356.1968
MEAN_ANOMALY   = 3.9120

EPHEMERIS_TYPE = 0
CLASSIFICATION_TYPE = U
NORAD_CAT_ID   = 5560
ELEMENT_SET_NO = 999
REV_AT_EPOCH   = 85101
BSTAR          = .12097E-3
MEAN_MOTION_DOT = .474E-5
MEAN_MOTION_DDOT = 0

CCSDS_OMM_VERS = 2.0
CREATION_DATE  = 
ORIGINATOR     = 

OBJECT_NAME    = SL-8 R/B
OBJECT_ID      = 1971-119B
CENTER_NAME    = EARTH
REF_FRAME      = TEME
TIME_SYSTEM    = UTC
MEAN_ELEMENT_THEORY = SGP/SGP4

EPOCH          = 2025-12-21T07:49:41.376576
MEAN_MOTION    = 14.35929635
ECCENTRICITY   = .05587782
INCLINATION    = 73.8890
RA_OF_ASC_NODE = 321.9879
ARG_OF_PERICENTER = 304.5298
MEAN_ANOMALY   = 50.4292

EPHEMERIS_TYPE = 0
CLASSIFICATION_TYPE = U
NORAD_CAT_ID   = 5730
ELEMENT_SET_NO = 999
REV_AT_EPOCH   = 64423
BSTAR          = .55385546E-3
MEAN_MOTION_DOT = .1064E-3
MEAN_MOTION_DDOT = 0

CCSDS_OMM_VERS = 2.0
CREATION_DATE  = 
ORIGINATOR     = 

OBJECT_NAME    = OAO 3 (COPERNICUS)
OBJECT_ID      = 1972-065A
CENTER_NAME    = EARTH
REF_FRAME      = TEME
TIME_SYSTEM    = UTC
MEAN_ELEMENT_THEORY = SGP/SGP4

EPOCH          = 2025-12-21T19:02:00.148992
MEAN_MOTION    = 14.59913649
ECCENTRICITY   = .0007164
INCLINATION    = 35.0070
RA_OF_ASC_NODE = 21.0941
ARG_OF_PERICENTER = 245.1980
MEAN_ANOMALY   = 281.2610

EPHEMERIS_TYPE = 0
CLASSIFICATION_TYPE = U
NORAD_CAT_ID   = 6153
ELEMENT_SET_NO = 999
REV_AT_EPOCH   = 83480
BSTAR          = .67688E-4
MEAN_MOTION_DOT = .308E-5
MEAN_MOTION_DDOT = 0

